UTMN 2 (RS27S)          
1 57203U 23091AP  26168.84457403  .00010684  00000+0  34713-3 0  9999
2 57203  97.5084 236.0746 0009227  81.7253 278.5034 15.32066245164640
KUZGTU 1 (RS47S)        
1 57217U 23091AV  26168.81899664  .00009979  00000+0  34678-3 0  9995
2 57217  97.5061 233.3055 0012287  96.0254 264.2387 15.29875057164472
SONATE-2                
1 59112U 24043Q   26168.39510587  .00033446  00000+0  43430-3 0  9998
2 59112  97.5537 318.8032 0007054 194.9241 165.1808 15.58731492127922
MESAT1                  
1 60209U 24125G   26168.55435910  .00045262  00000+0  49310-3 0  9994
2 60209  97.2283  26.0449 0009608 202.4554 157.6286 15.63233272109627
OOV-CUBE (TUBSAT-30)    
1 60240U 24128F   26168.65432346  .00001478  00000+0  12352-3 0  9990
2 60240  61.9933 223.9441 0044583 133.8615 226.6174 15.02775098106189
COLIBRI-S (RS67S)       
1 61746U 24199M   26168.83765564  .00017435  00000+0  33781-3 0  9990
2 61746  97.2987  42.6975 0006259 275.7078  84.3458 15.47747170137511
HORS 3 (RS81S)          
1 61753U 24199U   26168.79735829  .00031161  00000+0  46492-3 0  9999
2 61753  97.2970  44.6499 0003779 274.3771  85.7051 15.55009394137650
HORS 4 (RS82S)          
1 61754U 24199V   26168.82026503  .00040450  00000+0  50556-3 0  9993
2 61754  97.2915  45.8791 0003128 254.1966 105.8946 15.59728978137745
SIT-2086                
1 61764U 24199AF  26168.84077236  .00030716  00000+0  49061-3 0  9998
2 61764  97.2926  45.1684 0004652 246.7687 113.3077 15.53124997134530
HYPERVIEW 1G (RS66S)    
1 61772U 24199AP  26168.69760617  .00118174  00000+0  75647-3 0  9996
2 61772  97.2862  48.4424 0003879 216.3967 143.7035 15.75954968134758
ALTAIR (RS65S)          
1 61779U 24199AW  26168.82813406  .00006504  00000+0  18146-3 0  9997
2 61779  97.3022  38.1747 0011074 308.6431  51.3821 15.37030532137216
ASRTU-1 (AO-123)        
1 61781U 24199AY  26168.81659731  .00006195  00000+0  18047-3 0  9994
2 61781  97.2994  37.4816 0012254 311.6009  48.4184 15.35683035134026
SAMSAT-IONOSPHERE (RS7*)
1 61784U 24199BB  26168.83032691  .00038956  00000+0  52582-3 0  9991
2 61784  97.2939  44.7326 0005908 273.1185  86.9395 15.57672475137664
RTU MIREA 1 (RS51S)     
1 61785U 24199BC  26168.78921318  .00046765  00000+0  55299-3 0  9994
2 61785  97.2926  45.5254 0005554 264.3723  95.6901 15.61143035134563
TEVEL2-4                
1 63213U 25052D   26167.98658141  .00016047  00000+0  48034-3 0  9992
2 63213  97.3904  64.3780 0004859 103.4475 256.7310 15.34605865 70089
TEVEL2-5                
1 63214U 25052E   26168.65918476  .00015137  00000+0  45551-3 0  9998
2 63214  97.3899  64.9994 0004810 103.5179 256.6600 15.34451661 70180
TEVEL2-6                
1 63215U 25052F   26168.67152683  .00015165  00000+0  45683-3 0  9998
2 63215  97.3904  64.9959 0004737 104.1466 256.0303 15.34416475 70181
TEVEL2-1                
1 63217U 25052H   26167.98311732  .00015254  00000+0  46759-3 0  9999
2 63217  97.3878  63.9315 0004776 114.0246 246.1497 15.33862790 70062
TEVEL2-3                
1 63218U 25052J   26168.63011128  .00014014  00000+0  42884-3 0  9997
2 63218  97.3880  64.6004 0004756 112.8616 247.3129 15.33936150 70162
TEVEL2-2                
1 63219U 25052K   26167.65724747  .00014434  00000+0  44263-3 0  9996
2 63219  97.3883  63.6082 0004715 115.1533 245.0199 15.33861744 70012
TEVEL2-9                
1 63237U 25052AD  26168.67911600  .00012696  00000+0  41401-3 0  9994
2 63237  97.3939  64.0040 0007848 129.4733 230.7203 15.31910165 70100
TEVEL2-7                
1 63238U 25052AE  26168.65478595  .00013228  00000+0  43519-3 0  9998
2 63238  97.3940  63.8957 0007915 129.8998 230.2940 15.31613826 70094
TEVEL2-8                
1 63239U 25052AF  26168.66304257  .00012825  00000+0  42222-3 0  9995
2 63239  97.3941  63.8807 0007934 130.2742 229.9195 15.31597535 70099
INNOSAT 16 (RS92S7)     
1 64878U 25155C   26168.85479314  .00004859  00000+0  19469-3 0  9992
2 64878  97.4566 135.9804 0010639 173.0102 187.1286 15.25462874 80774
GEOSCAN 6 (RS92S6)      
1 64879U 25155D   26168.83551981  .00008399  00000+0  29010-3 0  9998
2 64879  97.4560 137.3898 0008435 160.4294 199.7272 15.30162707 80863
GEOSCAN 1 (RS92S1)      
1 64880U 25155E   26168.83771694  .00008999  00000+0  30498-3 0  9993
2 64880  97.4556 137.5406 0008365 160.1215 200.0353 15.30758373 80876
239ALFEROV (RS61S)      
1 64881U 25155F   26168.80643110  .00012354  00000+0  39005-3 0  9995
2 64881  97.4557 138.0727 0008130 157.1337 203.0268 15.32953978 80903
GEOSCAN 2 (RS92S2)      
1 64890U 25155Q   26168.83128642  .00008870  00000+0  29815-3 0  9992
2 64890  97.4555 137.6869 0008163 147.5523 212.6222 15.31029518 80885
GEOSCAN 5 (RS92S5)      
1 64891U 25155R   26168.79532766  .00012041  00000+0  37659-3 0  9994
2 64891  97.4550 138.1992 0006847 160.7226 199.4276 15.33270951 80914
GEOSCAN 4 (RS92S4)      
1 64892U 25155S   26168.84471441  .00012266  00000+0  38167-3 0  9997
2 64892  97.4553 138.2977 0006918 160.0612 200.0902 15.33428055 80929
GEOSCAN 3 (RS92S3)      
1 64893U 25155T   26168.84462019  .00015254  00000+0  44505-3 0  9992
2 64893  97.4541 138.7290 0006880 158.4517 201.7017 15.35415779 80952
INNOSAT 3 (RS92S0)      
1 64894U 25155U   26168.83114973  .00033529  00000+0  73820-3 0  9992
2 64894  97.4490 140.3426 0006629 149.6241 210.5392 15.43866330 81062
KNACKSAT-2              
1 67683U 98067XZ  26168.60673955  .00040994  00000+0  49993-3 0  9996
2 67683  51.6314 292.3670 0009088 217.1010 142.9356 15.60014370 20344
